61004,STARLINK-32336,2024,92.65,-1.0,+,53.16,Active,0,LEO,USA,USA,Unknown,Unknown,Unknown,1 61004U 24158Q   24273.91667824 -.01392320  00000+0 -24338-1 0  9994,2 61004  53.1597 354.3631 0001215  77.1366 121.7652 15.53105102  5098,15.53105102,0.0001215,LEO
61005,STARLINK-32284,2024,92.65,-1.0,+,53.16,Active,0,LEO,USA,USA,Unknown,Unknown,Unknown,1 61005U 24158R   24273.91667824 -.01391441  00000+0 -24321-1 0  9990,2 61005  53.1598 354.3861 0001267  76.0627 111.3801 15.53104559  5041,15.53104559,0.0001267,LEO
61006,STARLINK-32282,2024,92.65,-1.0,+,53.16,Active,0,LEO,USA,USA,Unknown,Unknown,Unknown,1 61006U 24158S   24273.91667824 -.01392901  00000+0 -24349-1 0  9993,2 61006  53.1596 354.3386 0001222  76.6510 133.7098 15.53105375  5098,15.53105375,0.0001222,LEO
61007,STARLINK-32360,2024,90.31,-1.0,+,53.15,Active,0,LEO,USA,USA,Unknown,Unknown,Unknown,1 61007U 24158T   24274.16667824 -.00448664  75217-4 -12737-2 0  9995,2 61007  53.1508 350.9355 0002957 353.7084 167.1359 15.92528609  5083,15.92528609,0.0002957,LEO
61008,STARLINK-32340,2024,91.86,-1.0,+,53.16,Active,0,LEO,USA,USA,Unknown,Unknown,Unknown,1 61008U 24158U   24273.78474447 -.00000542  00000+0  26552-6 0  9995,2 61008  53.1598 354.6286 0001798  44.7657 315.3504 15.67551921  4973,15.67551921,0.0001798,LEO
61009,STARLINK-32357,2024,91.86,-1.0,+,53.16,Active,0,LEO,USA,USA,Unknown,Unknown,Unknown,1 61009U 24158V   24274.22898117 -.00002048  00000+0 -13323-4 0  9994,2 61009  53.1598 352.4235 0001074 106.1348 253.9787 15.67567074  5068,15.67567074,0.0001074,LEO
61010,STARLINK-32347,2024,92.65,-1.0,+,53.16,Active,0,LEO,USA,USA,Unknown,Unknown,Unknown,1 61010U 24158W   24274.16667824 -.01328831  00000+0 -23765-1 0  9998,2 61010  53.1594 353.0644 0001127  86.0125 116.9714 15.52338195  5056,15.52338195,0.0001127,LEO
61011,GEESAT-3 01,2024,96.35,-1.0,+,50.0,Active,0,LEO,PRC,China,Unknown,Unknown,Unknown,1 61011U 24159A   24273.52693197  .00006103  00000+0  57970-3 0  9990,2 61011  50.0011 127.4827 0009393 268.4049  91.5818 14.94578704  3561,14.94578704,0.0009393,LEO
61012,GEESAT-3 02,2024,96.52,-1.0,+,49.99,Active,0,LEO,PRC,China,Unknown,Unknown,Unknown,1 61012U 24159B   24274.18957729  .00013826  00000+0  13728-2 0  9990,2 61012  49.9931 125.0088 0009525 358.4805   1.6106 14.91884009  3657,14.91884009,0.0009525,LEO
61013,GEESAT-3 03,2024,96.32,-1.0,+,49.99,Active,0,LEO,PRC,China,Unknown,Unknown,Unknown,1 61013U 24159C   24274.20530234  .00018599  00000+0  16778-2 0  9992,2 61013  49.9927 124.3697 0034472  52.9251 307.4836 14.95066312  4405,14.95066312,0.0034472,LEO
61014,GEESAT-3 04,2024,95.69,-1.0,+,50.01,Active,0,LEO,PRC,China,Unknown,Unknown,Unknown,1 61014U 24159D   24272.90597615  .00056161  00000+0  39132-2 0  9990,2 61014  50.0055 129.9948 0007322 308.2118 153.3442 15.04820948  3509,15.04820948,0.0007322,LEO
61015,GEESAT-3 05,2024,96.52,-1.0,+,50.0,Active,0,LEO,PRC,China,Unknown,Unknown,Unknown,1 61015U 24159E   24274.20430364  .00016072  00000+0  15846-2 0  9996,2 61015  50.0033 124.3920 0023412 234.8797 124.9950 14.91888264  3643,14.91888264,0.0023412,LEO
61016,GEESAT-3 06,2024,96.52,-1.0,+,50.0,Active,0,LEO,PRC,China,Unknown,Unknown,Unknown,1 61016U 24159F   24274.16713449  .00013056  00000+0  12961-2 0  9994,2 61016  49.9978 124.8820 0012125 315.9975  44.0000 14.91916397  3626,14.91916397,0.0012125,LEO
61017,GEESAT-3 07,2024,96.53,-1.0,+,49.99,Active,0,LEO,PRC,China,Unknown,Unknown,Unknown,1 61017U 24159G   24273.70546417  .00014710  00000+0  14564-2 0  9992,2 61017  49.9943 126.9478 0016834   3.1239  75.1836 14.91885715  3554,14.91885715,0.0016834,LEO
