[
    {
    "OBJECT_NAME": "STARLINK-32336",
    "OBJECT_ID": "2024-158Q",
    "EPOCH": "2024-09-29T22:00:00.999936",
    "MEAN_MOTION": 15.53105102,
    "ECCENTRICITY": 0.0001215,
    "INCLINATION": 53.1597,
    "RA_OF_ASC_NODE": 354.3631,
    "ARG_OF_PERICENTER": 77.1366,
    "MEAN_ANOMALY": 121.7652,
    "EPHEMERIS_TYPE": 0,
    "CLASSIFICATION_TYPE": "U",
    "NORAD_CAT_ID": 61004,
    "ELEMENT_SET_NO": 999,
    "REV_AT_EPOCH": 509,
    "BSTAR": -0.024338,
    "MEAN_MOTION_DOT": -0.0139232,
    "MEAN_MOTION_DDOT": 0
    },
    {
    "OBJECT_NAME": "STARLINK-32284",
    "OBJECT_ID": "2024-158R",
    "EPOCH": "2024-09-29T22:00:00.999936",
    "MEAN_MOTION": 15.53104559,
    "ECCENTRICITY": 0.0001267,
    "INCLINATION": 53.1598,
    "RA_OF_ASC_NODE": 354.3861,
    "ARG_OF_PERICENTER": 76.0627,
    "MEAN_ANOMALY": 111.3801,
    "EPHEMERIS_TYPE": 0,
    "CLASSIFICATION_TYPE": "U",
    "NORAD_CAT_ID": 61005,
    "ELEMENT_SET_NO": 999,
    "REV_AT_EPOCH": 504,
    "BSTAR": -0.024321,
    "MEAN_MOTION_DOT": -0.01391441,
    "MEAN_MOTION_DDOT": 0
    },
    {
    "OBJECT_NAME": "STARLINK-32282",
    "OBJECT_ID": "2024-158S",
    "EPOCH": "2024-09-29T22:00:00.999936",
    "MEAN_MOTION": 15.53105375,
    "ECCENTRICITY": 0.0001222,
    "INCLINATION": 53.1596,
    "RA_OF_ASC_NODE": 354.3386,
    "ARG_OF_PERICENTER": 76.651,
    "MEAN_ANOMALY": 133.7098,
    "EPHEMERIS_TYPE": 0,
    "CLASSIFICATION_TYPE": "U",
    "NORAD_CAT_ID": 61006,
    "ELEMENT_SET_NO": 999,
    "REV_AT_EPOCH": 509,
    "BSTAR": -0.024349,
    "MEAN_MOTION_DOT": -0.01392901,
    "MEAN_MOTION_DDOT": 0
    },
    {
    "OBJECT_NAME": "STARLINK-32360",
    "OBJECT_ID": "2024-158T",
    "EPOCH": "2024-09-30T04:00:00.999936",
    "MEAN_MOTION": 15.92528609,
    "ECCENTRICITY": 0.0002957,
    "INCLINATION": 53.1508,
    "RA_OF_ASC_NODE": 350.9355,
    "ARG_OF_PERICENTER": 353.7084,
    "MEAN_ANOMALY": 167.1359,
    "EPHEMERIS_TYPE": 0,
    "CLASSIFICATION_TYPE": "U",
    "NORAD_CAT_ID": 61007,
    "ELEMENT_SET_NO": 999,
    "REV_AT_EPOCH": 508,
    "BSTAR": -0.0012737,
    "MEAN_MOTION_DOT": -0.00448664,
    "MEAN_MOTION_DDOT": 0.000075217
    },
    {
    "OBJECT_NAME": "STARLINK-32340",
    "OBJECT_ID": "2024-158U",
    "EPOCH": "2024-09-29T18:50:01.922208",
    "MEAN_MOTION": 15.67551921,
    "ECCENTRICITY": 0.0001798,
    "INCLINATION": 53.1598,
    "RA_OF_ASC_NODE": 354.6286,
    "ARG_OF_PERICENTER": 44.7657,
    "MEAN_ANOMALY": 315.3504,
    "EPHEMERIS_TYPE": 0,
    "CLASSIFICATION_TYPE": "U",
    "NORAD_CAT_ID": 61008,
    "ELEMENT_SET_NO": 999,
    "REV_AT_EPOCH": 497,
    "BSTAR": 2.6552e-7,
    "MEAN_MOTION_DOT": -0.00000542,
    "MEAN_MOTION_DDOT": 0
    },
    {
    "OBJECT_NAME": "STARLINK-32357",
    "OBJECT_ID": "2024-158V",
    "EPOCH": "2024-09-30T05:29:43.973088",
    "MEAN_MOTION": 15.67567074,
    "ECCENTRICITY": 0.0001074,
    "INCLINATION": 53.1598,
    "RA_OF_ASC_NODE": 352.4235,
    "ARG_OF_PERICENTER": 106.1348,
    "MEAN_ANOMALY": 253.9787,
    "EPHEMERIS_TYPE": 0,
    "CLASSIFICATION_TYPE": "U",
    "NORAD_CAT_ID": 61009,
    "ELEMENT_SET_NO": 999,
    "REV_AT_EPOCH": 506,
    "BSTAR": -0.000013323,
    "MEAN_MOTION_DOT": -0.00002048,
    "MEAN_MOTION_DDOT": 0
    },
    {
    "OBJECT_NAME": "STARLINK-32347",
    "OBJECT_ID": "2024-158W",
    "EPOCH": "2024-09-30T04:00:00.999936",
    "MEAN_MOTION": 15.52338195,
    "ECCENTRICITY": 0.0001127,
    "INCLINATION": 53.1594,
    "RA_OF_ASC_NODE": 353.0644,
    "ARG_OF_PERICENTER": 86.0125,
    "MEAN_ANOMALY": 116.9714,
    "EPHEMERIS_TYPE": 0,
    "CLASSIFICATION_TYPE": "U",
    "NORAD_CAT_ID": 61010,
    "ELEMENT_SET_NO": 999,
    "REV_AT_EPOCH": 505,
    "BSTAR": -0.023765,
    "MEAN_MOTION_DOT": -0.01328831,
    "MEAN_MOTION_DDOT": 0
    },
    {
    "OBJECT_NAME": "GEESAT-3 01",
    "OBJECT_ID": "2024-159A",
    "EPOCH": "2024-09-29T12:38:46.922208",
    "MEAN_MOTION": 14.94578704,
    "ECCENTRICITY": 0.0009393,
    "INCLINATION": 50.0011,
    "RA_OF_ASC_NODE": 127.4827,
    "ARG_OF_PERICENTER": 268.4049,
    "MEAN_ANOMALY": 91.5818,
    "EPHEMERIS_TYPE": 0,
    "CLASSIFICATION_TYPE": "U",
    "NORAD_CAT_ID": 61011,
    "ELEMENT_SET_NO": 999,
    "REV_AT_EPOCH": 356,
    "BSTAR": 0.0005797,
    "MEAN_MOTION_DOT": 0.00006103,
    "MEAN_MOTION_DDOT": 0
    },
    {
    "OBJECT_NAME": "GEESAT-3 02",
    "OBJECT_ID": "2024-159B",
    "EPOCH": "2024-09-30T04:32:59.477856",
    "MEAN_MOTION": 14.91884009,
    "ECCENTRICITY": 0.0009525,
    "INCLINATION": 49.9931,
    "RA_OF_ASC_NODE": 125.0088,
    "ARG_OF_PERICENTER": 358.4805,
    "MEAN_ANOMALY": 1.6106,
    "EPHEMERIS_TYPE": 0,
    "CLASSIFICATION_TYPE": "U",
    "NORAD_CAT_ID": 61012,
    "ELEMENT_SET_NO": 999,
    "REV_AT_EPOCH": 365,
    "BSTAR": 0.0013728,
    "MEAN_MOTION_DOT": 0.00013826,
    "MEAN_MOTION_DDOT": 0
    },
    {
    "OBJECT_NAME": "GEESAT-3 03",
    "OBJECT_ID": "2024-159C",
    "EPOCH": "2024-09-30T04:55:38.122176",
    "MEAN_MOTION": 14.95066312,
    "ECCENTRICITY": 0.0034472,
    "INCLINATION": 49.9927,
    "RA_OF_ASC_NODE": 124.3697,
    "ARG_OF_PERICENTER": 52.9251,
    "MEAN_ANOMALY": 307.4836,
    "EPHEMERIS_TYPE": 0,
    "CLASSIFICATION_TYPE": "U",
    "NORAD_CAT_ID": 61013,
    "ELEMENT_SET_NO": 999,
    "REV_AT_EPOCH": 440,
    "BSTAR": 0.0016778,
    "MEAN_MOTION_DOT": 0.00018599,
    "MEAN_MOTION_DDOT": 0
    },
    {
    "OBJECT_NAME": "GEESAT-3 04",
    "OBJECT_ID": "2024-159D",
    "EPOCH": "2024-09-28T21:44:36.339360",
    "MEAN_MOTION": 15.04820948,
    "ECCENTRICITY": 0.0007322,
    "INCLINATION": 50.0055,
    "RA_OF_ASC_NODE": 129.9948,
    "ARG_OF_PERICENTER": 308.2118,
    "MEAN_ANOMALY": 153.3442,
    "EPHEMERIS_TYPE": 0,
    "CLASSIFICATION_TYPE": "U",
    "NORAD_CAT_ID": 61014,
    "ELEMENT_SET_NO": 999,
    "REV_AT_EPOCH": 350,
    "BSTAR": 0.0039132,
    "MEAN_MOTION_DOT": 0.00056161,
    "MEAN_MOTION_DDOT": 0
    },
    {
    "OBJECT_NAME": "GEESAT-3 05",
    "OBJECT_ID": "2024-159E",
    "EPOCH": "2024-09-30T04:54:11.834496",
    "MEAN_MOTION": 14.91888264,
    "ECCENTRICITY": 0.0023412,
    "INCLINATION": 50.0033,
    "RA_OF_ASC_NODE": 124.392,
    "ARG_OF_PERICENTER": 234.8797,
    "MEAN_ANOMALY": 124.995,
    "EPHEMERIS_TYPE": 0,
    "CLASSIFICATION_TYPE": "U",
    "NORAD_CAT_ID": 61015,
    "ELEMENT_SET_NO": 999,
    "REV_AT_EPOCH": 364,
    "BSTAR": 0.0015846,
    "MEAN_MOTION_DOT": 0.00016072,
    "MEAN_MOTION_DDOT": 0
    },
    {
    "OBJECT_NAME": "GEESAT-3 06",
    "OBJECT_ID": "2024-159F",
    "EPOCH": "2024-09-30T04:00:40.419936",
    "MEAN_MOTION": 14.91916397,
    "ECCENTRICITY": 0.0012125,
    "INCLINATION": 49.9978,
    "RA_OF_ASC_NODE": 124.882,
    "ARG_OF_PERICENTER": 315.9975,
    "MEAN_ANOMALY": 44,
    "EPHEMERIS_TYPE": 0,
    "CLASSIFICATION_TYPE": "U",
    "NORAD_CAT_ID": 61016,
    "ELEMENT_SET_NO": 999,
    "REV_AT_EPOCH": 362,
    "BSTAR": 0.0012961,
    "MEAN_MOTION_DOT": 0.00013056,
    "MEAN_MOTION_DDOT": 0
    },
    {
    "OBJECT_NAME": "GEESAT-3 07",
    "OBJECT_ID": "2024-159G",
    "EPOCH": "2024-09-29T16:55:52.104288",
    "MEAN_MOTION": 14.91885715,
    "ECCENTRICITY": 0.0016834,
    "INCLINATION": 49.9943,
    "RA_OF_ASC_NODE": 126.9478,
    "ARG_OF_PERICENTER": 3.1239,
    "MEAN_ANOMALY": 75.1836,
    "EPHEMERIS_TYPE": 0,
    "CLASSIFICATION_TYPE": "U",
    "NORAD_CAT_ID": 61017,
    "ELEMENT_SET_NO": 999,
    "REV_AT_EPOCH": 355,
    "BSTAR": 0.0014564,
    "MEAN_MOTION_DOT": 0.0001471,
    "MEAN_MOTION_DDOT": 0
    }
    ]
